[
    {
        "Altitude(m)": 605459.0066306375,
        "Argument of Periapsis(deg)": 0.0,
        "Eccentricity": 0.0,
        "Inclination(deg)": 60.0,
        "Latitude(deg)": 27.98814202629659,
        "Longitude(deg)": -52.20144660448779,
        "Mean Anomaly(deg)": 32.72730000000001,
        "RAAN(deg)": 30.0,
        "Satellite Name": "Test1 134",
        "Satellite Number": 134,
        "Semi-Major Axis(m)": 6980739.136638005,
        "Time(s)": 0
    },
    {
        "Altitude(m)": 605535.7975009623,
        "Argument of Periapsis(deg)": 0.00010418945913296404,
        "Eccentricity": 0.0,
        "Inclination(deg)": 60.0,
        "Latitude(deg)": 28.501271914671268,
        "Longitude(deg)": -51.84450244891148,
        "Mean Anomaly(deg)": 33.34740614546182,
        "RAAN(deg)": 29.99957995086026,
        "Satellite Name": "Test1 134",
        "Satellite Number": 134,
        "Semi-Major Axis(m)": 6980739.136638005,
        "Time(s)": 10
    }
]